start=new Date('2022-09-15T00:00:00.000Z').valueOf();
sats=[{"TLE_LINE1":"1 45229U 20012BD  22257.43113289 -.00000325  00000-0 -29238-5 0  9997","SITE":"AFETR","ECCENTRICITY":"0.00014350","INCLINATION":"53.0552","MEAN_MOTION_DDOT":"0.0000000000000","MEAN_MOTION_DOT":"-0.00000325","BSTAR":"-0.00000292380000","GP_ID":"212579937","PERIAPSIS":"546.275","RA_OF_ASC_NODE":"318.0235","ARG_OF_PERICENTER":"84.1389","REV_AT_EPOCH":"14353","ELEMENT_SET_NO":"999","OBJECT_NAME":"STARLINK-1226","EPHEMERIS_TYPE":"0","COUNTRY_CODE":"US","CLASSIFICATION_TYPE":"U","EPOCH":"2022-09-14T10:20:49.881696","MEAN_ELEMENT_THEORY":"SGP4","FILE":"3574027","RCS_SIZE":"LARGE","DECAY_DATE":null,"REF_FRAME":"TEME","TIME_SYSTEM":"UTC","TLE_LINE2":"2 45229  53.0552 318.0235 0001435  84.1389 275.9764 15.06381939143533","SEMIMAJOR_AXIS":"6925.404","OBJECT_ID":"2020-012BD","MEAN_ANOMALY":"275.9764","NORAD_CAT_ID":"45229","LAUNCH_DATE":"2020-02-17","OBJECT_TYPE":"PAYLOAD","CENTER_NAME":"EARTH","APOAPSIS":"548.263","MEAN_MOTION":"15.06381939","PERIOD":"95.593"},{"RCS_SIZE":"LARGE","REF_FRAME":"TEME","DECAY_DATE":null,"EPOCH":"2022-09-14T11:51:03.943296","FILE":"3574027","MEAN_ELEMENT_THEORY":"SGP4","CLASSIFICATION_TYPE":"U","COUNTRY_CODE":"US","EPHEMERIS_TYPE":"0","OBJECT_NAME":"STARLINK-1227","ELEMENT_SET_NO":"999","ARG_OF_PERICENTER":"79.2962","RA_OF_ASC_NODE":"317.7298","REV_AT_EPOCH":"14366","PERIAPSIS":"546.287","GP_ID":"212578687","MEAN_MOTION_DOT":"-0.00001002","BSTAR":"-0.00004837700000","MEAN_MOTION_DDOT":"0.0000000000000","INCLINATION":"53.0560","ECCENTRICITY":"0.00014020","TLE_LINE1":"1 45230U 20012BE  22257.49379564 -.00001002  00000-0 -48377-4 0  9992","SITE":"AFETR","MEAN_MOTION":"15.06385390","PERIOD":"95.593","CENTER_NAME":"EARTH","APOAPSIS":"548.229","OBJECT_TYPE":"PAYLOAD","NORAD_CAT_ID":"45230","LAUNCH_DATE":"2020-02-17","MEAN_ANOMALY":"280.8185","SEMIMAJOR_AXIS":"6925.393","OBJECT_ID":"2020-012BE","TLE_LINE2":"2 45230  53.0560 317.7298 0001402  79.2962 280.8185 15.06385390143666","TIME_SYSTEM":"UTC"},{"TLE_LINE2":"2 45231  53.0172  96.0203 0001815  78.0388 282.0836 15.80918597146625","TIME_SYSTEM":"UTC","SEMIMAJOR_AXIS":"6705.979","OBJECT_ID":"2020-012BF","MEAN_ANOMALY":"282.0836","OBJECT_TYPE":"PAYLOAD","LAUNCH_DATE":"2020-02-17","NORAD_CAT_ID":"45231","PERIOD":"91.086","MEAN_MOTION":"15.80918597","CENTER_NAME":"EARTH","APOAPSIS":"329.061","ECCENTRICITY":"0.00018150","SITE":"AFETR","TLE_LINE1":"1 45231U 20012BF  22257.66893439  .00105939  00000-0  53249-3 0  9999","INCLINATION":"53.0172","MEAN_MOTION_DDOT":"0.0000000000000","GP_ID":"212609103","PERIAPSIS":"326.627","BSTAR":"0.00053249000000","MEAN_MOTION_DOT":"0.00105939","RA_OF_ASC_NODE":"96.0203","ARG_OF_PERICENTER":"78.0388","REV_AT_EPOCH":"14662","OBJECT_NAME":"STARLINK-1229","ELEMENT_SET_NO":"999","CLASSIFICATION_TYPE":"U","EPHEMERIS_TYPE":"0","COUNTRY_CODE":"US","DECAY_DATE":null,"REF_FRAME":"TEME","RCS_SIZE":"LARGE","FILE":"3574287","MEAN_ELEMENT_THEORY":"SGP4","EPOCH":"2022-09-14T16:03:15.931296"},{"CLASSIFICATION_TYPE":"U","COUNTRY_CODE":"US","EPHEMERIS_TYPE":"0","RCS_SIZE":"LARGE","REF_FRAME":"TEME","DECAY_DATE":null,"EPOCH":"2022-09-14T10:30:04.073760","FILE":"3574027","MEAN_ELEMENT_THEORY":"SGP4","ARG_OF_PERICENTER":"79.2863","REV_AT_EPOCH":"14364","RA_OF_ASC_NODE":"317.9744","OBJECT_NAME":"STARLINK-1235","ELEMENT_SET_NO":"999","MEAN_MOTION_DDOT":"0.0000000000000","PERIAPSIS":"546.342","GP_ID":"212579688","MEAN_MOTION_DOT":"-0.00000347","BSTAR":"-0.00000443400000","ECCENTRICITY":"0.00012870","TLE_LINE1":"1 45232U 20012BG  22257.43754715 -.00000347  00000-0 -44340-5 0  9991","SITE":"AFETR","INCLINATION":"53.0546","MEAN_MOTION":"15.06393629","PERIOD":"95.593","CENTER_NAME":"EARTH","APOAPSIS":"548.124","MEAN_ANOMALY":"280.8271","OBJECT_TYPE":"PAYLOAD","NORAD_CAT_ID":"45232","LAUNCH_DATE":"2020-02-17","TIME_SYSTEM":"UTC","TLE_LINE2":"2 45232  53.0546 317.9744 0001287  79.2863 280.8271 15.06393629143649","OBJECT_ID":"2020-012BG","SEMIMAJOR_AXIS":"6925.368"},{"EPHEMERIS_TYPE":"0","COUNTRY_CODE":"US","CLASSIFICATION_TYPE":"U","FILE":"3574287","MEAN_ELEMENT_THEORY":"SGP4","EPOCH":"2022-09-14T14:48:51.880896","DECAY_DATE":null,"REF_FRAME":"TEME","RCS_SIZE":"LARGE","ARG_OF_PERICENTER":"93.5877","REV_AT_EPOCH":"14337","RA_OF_ASC_NODE":"337.1723","ELEMENT_SET_NO":"999","OBJECT_NAME":"STARLINK-1238","MEAN_MOTION_DDOT":"0.0000000000000","BSTAR":"-0.00001179100000","MEAN_MOTION_DOT":"-0.00000457","PERIAPSIS":"546.377","GP_ID":"212610095","SITE":"AFETR","TLE_LINE1":"1 45233U 20012BH  22257.61726714 -.00000457  00000-0 -11791-4 0  9995","ECCENTRICITY":"0.00012610","INCLINATION":"53.0552","CENTER_NAME":"EARTH","APOAPSIS":"548.124","PERIOD":"95.593","MEAN_MOTION":"15.06388037","MEAN_ANOMALY":"266.5256","LAUNCH_DATE":"2020-02-17","NORAD_CAT_ID":"45233","OBJECT_TYPE":"PAYLOAD","TIME_SYSTEM":"UTC","TLE_LINE2":"2 45233  53.0552 337.1723 0001261  93.5877 266.5256 15.06388037143375","OBJECT_ID":"2020-012BH","SEMIMAJOR_AXIS":"6925.385"},{"FILE":"3574287","MEAN_ELEMENT_THEORY":"SGP4","EPOCH":"2022-09-14T15:44:35.687904","REF_FRAME":"TEME","DECAY_DATE":null,"RCS_SIZE":"LARGE","EPHEMERIS_TYPE":"0","COUNTRY_CODE":"US","CLASSIFICATION_TYPE":"U","ELEMENT_SET_NO":"999","OBJECT_NAME":"STARLINK-1243","ARG_OF_PERICENTER":"87.0670","RA_OF_ASC_NODE":"357.0127","REV_AT_EPOCH":"14308","BSTAR":"0.00001373400000","MEAN_MOTION_DOT":"-0.00000077","GP_ID":"212608856","PERIAPSIS":"546.296","MEAN_MOTION_DDOT":"0.0000000000000","INCLINATION":"53.0569","SITE":"AFETR","TLE_LINE1":"1 45234U 20012BJ  22257.65596861 -.00000077  00000-0  13734-4 0  9994","ECCENTRICITY":"0.00013580","CENTER_NAME":"EARTH","APOAPSIS":"548.177","PERIOD":"95.593","MEAN_MOTION":"15.06392608","LAUNCH_DATE":"2020-02-17","NORAD_CAT_ID":"45234","OBJECT_TYPE":"PAYLOAD","MEAN_ANOMALY":"273.0474","OBJECT_ID":"2020-012BJ","SEMIMAJOR_AXIS":"6925.371","TLE_LINE2":"2 45234  53.0569 357.0127 0001358  87.0670 273.0474 15.06392608143081","TIME_SYSTEM":"UTC"},{"INCLINATION":"53.0575","TLE_LINE1":"1 45235U 20012BK  22257.57488004 -.00000523  00000-0 -16212-4 0  9996","SITE":"AFETR","ECCENTRICITY":"0.00015510","MEAN_MOTION_DOT":"-0.00000523","BSTAR":"-0.00001621200000","PERIAPSIS":"546.180","GP_ID":"212609603","MEAN_MOTION_DDOT":"0.0000000000000","ELEMENT_SET_NO":"999","OBJECT_NAME":"STARLINK-1246","REV_AT_EPOCH":"14312","RA_OF_ASC_NODE":"357.3577","ARG_OF_PERICENTER":"51.7906","EPOCH":"2022-09-14T13:47:49.635456","MEAN_ELEMENT_THEORY":"SGP4","FILE":"3574287","RCS_SIZE":"LARGE","DECAY_DATE":null,"REF_FRAME":"TEME","EPHEMERIS_TYPE":"0","COUNTRY_CODE":"US","CLASSIFICATION_TYPE":"U","SEMIMAJOR_AXIS":"6925.389","OBJECT_ID":"2020-012BK","TLE_LINE2":"2 45235  53.0575 357.3577 0001551  51.7906 308.3222 15.06386883143122","TIME_SYSTEM":"UTC","NORAD_CAT_ID":"45235","LAUNCH_DATE":"2020-02-17","OBJECT_TYPE":"PAYLOAD","MEAN_ANOMALY":"308.3222","APOAPSIS":"548.328","CENTER_NAME":"EARTH","MEAN_MOTION":"15.06386883","PERIOD":"95.593"},{"TIME_SYSTEM":"UTC","TLE_LINE2":"2 45236  53.0554 317.4553 0001547  64.9543 295.1606 15.06393113143650","OBJECT_ID":"2020-012BL","SEMIMAJOR_AXIS":"6925.370","MEAN_ANOMALY":"295.1606","OBJECT_TYPE":"PAYLOAD","NORAD_CAT_ID":"45236","LAUNCH_DATE":"2020-02-17","MEAN_MOTION":"15.06393113","PERIOD":"95.593","APOAPSIS":"548.306","CENTER_NAME":"EARTH","ECCENTRICITY":"0.00015470","TLE_LINE1":"1 45236U 20012BL  22257.55644511 -.00000130  00000-0  10192-4 0  9996","SITE":"AFETR","INCLINATION":"53.0554","MEAN_MOTION_DDOT":"0.0000000000000","GP_ID":"212610352","PERIAPSIS":"546.163","MEAN_MOTION_DOT":"-0.00000130","BSTAR":"0.00001019200000","ARG_OF_PERICENTER":"64.9543","RA_OF_ASC_NODE":"317.4553","REV_AT_EPOCH":"14365","OBJECT_NAME":"STARLINK-1247","ELEMENT_SET_NO":"999","CLASSIFICATION_TYPE":"U","EPHEMERIS_TYPE":"0","COUNTRY_CODE":"US","RCS_SIZE":"LARGE","REF_FRAME":"TEME","DECAY_DATE":null,"EPOCH":"2022-09-14T13:21:16.857504","MEAN_ELEMENT_THEORY":"SGP4","FILE":"3574287"},{"LAUNCH_DATE":"2020-02-17","NORAD_CAT_ID":"45237","OBJECT_TYPE":"PAYLOAD","MEAN_ANOMALY":"273.8318","APOAPSIS":"548.227","CENTER_NAME":"EARTH","PERIOD":"95.592","MEAN_MOTION":"15.06398018","OBJECT_ID":"2020-012BM","SEMIMAJOR_AXIS":"6925.355","TIME_SYSTEM":"UTC","TLE_LINE2":"2 45237  53.0544 317.9401 0001455  86.2837 273.8318 15.06398018143649","ELEMENT_SET_NO":"999","OBJECT_NAME":"STARLINK-1270","ARG_OF_PERICENTER":"86.2837","REV_AT_EPOCH":"14364","RA_OF_ASC_NODE":"317.9401","FILE":"3574027","MEAN_ELEMENT_THEORY":"SGP4","EPOCH":"2022-09-14T10:42:03.174912","DECAY_DATE":null,"REF_FRAME":"TEME","RCS_SIZE":"LARGE","EPHEMERIS_TYPE":"0","COUNTRY_CODE":"US","CLASSIFICATION_TYPE":"U","INCLINATION":"53.0544","SITE":"AFETR","TLE_LINE1":"1 45237U 20012BM  22257.44587008  .00000551  00000-0  55889-4 0  9990","ECCENTRICITY":"0.00014550","BSTAR":"0.00005588900000","MEAN_MOTION_DOT":"0.00000551","GP_ID":"212579938","PERIAPSIS":"546.212","MEAN_MOTION_DDOT":"0.0000000000000"},{"TIME_SYSTEM":"UTC","TLE_LINE2":"2 45360  53.0550  86.9473 0001544  67.3333 292.7819 15.06384713138417","SEMIMAJOR_AXIS":"6925.395","OBJECT_ID":"2020-019A","PERIOD":"95.593","MEAN_MOTION":"15.06384713","APOAPSIS":"548.330","CENTER_NAME":"EARTH","MEAN_ANOMALY":"292.7819","OBJECT_TYPE":"PAYLOAD","LAUNCH_DATE":"2020-03-18","NORAD_CAT_ID":"45360","MEAN_MOTION_DDOT":"0.0000000000000","GP_ID":"212608869","PERIAPSIS":"546.191","BSTAR":"0.00002095200000","MEAN_MOTION_DOT":"0.00000030","ECCENTRICITY":"0.00015440","SITE":"AFETR","TLE_LINE1":"1 45360U 20019A   22257.66980667  .00000030  00000-0  20952-4 0  9991","INCLINATION":"53.0550","CLASSIFICATION_TYPE":"U","EPHEMERIS_TYPE":"0","COUNTRY_CODE":"US","DECAY_DATE":null,"REF_FRAME":"TEME","RCS_SIZE":"LARGE","MEAN_ELEMENT_THEORY":"SGP4","FILE":"3574287","EPOCH":"2022-09-14T16:04:31.296288","REV_AT_EPOCH":"13841","ARG_OF_PERICENTER":"67.3333","RA_OF_ASC_NODE":"86.9473","OBJECT_NAME":"STARLINK-1279","ELEMENT_SET_NO":"999"}];
